STARLINK-36545          
1 67505U 26012N   26041.50002314 -.01888783  00000+0 -30011-1 0  9992
2 67505  42.9995 108.7720 0001248 282.6695  93.4485 15.55931004  4708
STARLINK-36553          
1 67506U 26012P   26041.50002314 -.01887510  00000+0 -28499-1 0  9997
2 67506  42.9997 108.6879 0001408 280.6904 129.2780 15.57281083  4707
STARLINK-36521          
1 67507U 26012Q   26041.50002314 -.01889671  00000+0 -28586-1 0  9995
2 67507  42.9996 108.6763 0001430 287.5956 126.8178 15.57234361  4708
STARLINK-36526          
1 67508U 26012R   26041.50002314 -.01885144  00000+0 -28531-1 0  9997
2 67508  42.9999 108.6630 0001360 285.6372 134.0829 15.57214260  4708
STARLINK-36541          
1 67509U 26012S   26041.50002314  .00060573  00000+0  10327-2 0  9991
2 67509  43.0005 109.6932 0000312 295.2566  67.3524 15.50515622  4645
STARLINK-36549          
1 67510U 26012T   26041.50002314 -.01891767  00000+0 -30338-1 0  9996
2 67510  42.9996 108.5181 0001448 292.1170 183.1711 15.55687059  4640
STARLINK-36540          
1 67511U 26012U   26041.50002314  .00069810  00000+0  11879-2 0  9990
2 67511  43.0005 109.6710 0001365 272.3438  99.5260 15.50515044  4704
STARLINK-36538          
1 67512U 26012V   26041.50002314 -.01870408  00000+0 -33163-1 0  9996
2 67512  43.0001 108.8761 0001258 276.1642  57.3792 15.52936045  4700
STARLINK-36531          
1 67513U 26012W   26041.50002314 -.01874900  00000+0 -32198-1 0  9995
2 67513  42.9996 108.8106 0001581 278.7331  80.9316 15.53810567  4645
STARLINK-36530          
1 67514U 26012X   26041.50002314 -.02403610  00000+0 -42631-1 0  9996
2 67514  42.9999 108.8536 0001712 283.2707  58.6486 15.53262423  4642
STARLINK-36543          
1 67515U 26012Y   26041.50002314 -.01749857  00000+0 -32040-1 0  9995
2 67515  43.0001 108.9032 0001261 280.1785  41.7227 15.51819403  4642
STARLINK-36537          
1 67516U 26012Z   26041.50002314 -.01886955  00000+0 -32322-1 0  9990
2 67516  42.9996 108.7442 0001310 286.9834  98.8220 15.53905275  4642
